{
"type": "FeatureCollection",
"name": "titik_fasilitas_bersih",
"crs": { "type": "name", "properties": { "name": "urn:ogc:def:crs:OGC:1.3:CRS84" } },
"features": [
{ "type": "Feature", "properties": { "osm_id": "12927593518", "name": "Tuah Saiyo", "amenity": "restaurant", "shop": null, "railway": null, "jenis_fasilitas": "kuliner", "kategori_final": "Kuliner" }, "geometry": { "type": "Point", "coordinates": [ 106.9212096, -6.2963525 ] } },
{ "type": "Feature", "properties": { "osm_id": "12927593519", "name": "Pizza Hut", "amenity": "restaurant", "shop": null, "railway": null, "jenis_fasilitas": "kuliner", "kategori_final": "Kuliner" }, "geometry": { "type": "Point", "coordinates": [ 106.9215656, -6.2959585 ] } },
{ "type": "Feature", "properties": { "osm_id": "12543637092", "name": "Savory Heights at Punto", "amenity": "restaurant", "shop": null, "railway": null, "jenis_fasilitas": "kuliner", "kategori_final": "Kuliner" }, "geometry": { "type": "Point", "coordinates": [ 106.9735442, -6.2341808 ] } },
{ "type": "Feature", "properties": { "osm_id": "13081235459", "name": "Warteg Pipit", "amenity": "restaurant", "shop": null, "railway": null, "jenis_fasilitas": "kuliner", "kategori_final": "Kuliner" }, "geometry": { "type": "Point", "coordinates": [ 107.0119238, -6.2523294 ] } },
{ "type": "Feature", "properties": { "osm_id": "13081235460", "name": "Warteg Mba Dewi", "amenity": "restaurant", "shop": null, "railway": null, "jenis_fasilitas": "kuliner", "kategori_final": "Kuliner" }, "geometry": { "type": "Point", "coordinates": [ 107.0138832, -6.2491732 ] } },
{ "type": "Feature", "properties": { "osm_id": "13001459042", "name": "Nasi Goreng Mas Gendut", "amenity": "restaurant", "shop": null, "railway": null, "jenis_fasilitas": "kuliner", "kategori_final": "Kuliner" }, "geometry": { "type": "Point", "coordinates": [ 106.9958826, -6.2953778 ] } },
{ "type": "Feature", "properties": { "osm_id": "13081229300", "name": "RM Restu Bundo", "amenity": "restaurant", "shop": null, "railway": null, "jenis_fasilitas": "kuliner", "kategori_final": "Kuliner" }, "geometry": { "type": "Point", "coordinates": [ 107.0041669, -6.2552824 ] } },
{ "type": "Feature", "properties": { "osm_id": "11779952404", "name": null, "amenity": "restaurant", "shop": null, "railway": null, "jenis_fasilitas": "kuliner", "kategori_final": "Kuliner" }, "geometry": { "type": "Point", "coordinates": [ 106.9990381, -6.2206685 ] } },
{ "type": "Feature", "properties": { "osm_id": "11655619344", "name": "Doyan Ayam Jatisampurna, Bekasi", "amenity": "restaurant", "shop": null, "railway": null, "jenis_fasilitas": "kuliner", "kategori_final": "Kuliner" }, "geometry": { "type": "Point", "coordinates": [ 106.9241483, -6.3825809 ] } },
{ "type": "Feature", "properties": { "osm_id": "11655627069", "name": "Doyan Ayam Jatiasih, Bekasi", "amenity": "restaurant", "shop": null, "railway": null, "jenis_fasilitas": "kuliner", "kategori_final": "Kuliner" }, "geometry": { "type": "Point", "coordinates": [ 106.9455313, -6.3309058 ] } },
{ "type": "Feature", "properties": { "osm_id": "12336519961", "name": "RM Joglo Kembar", "amenity": "restaurant", "shop": null, "railway": null, "jenis_fasilitas": "kuliner", "kategori_final": "Kuliner" }, "geometry": { "type": "Point", "coordinates": [ 106.9497179, -6.3173471 ] } },
{ "type": "Feature", "properties": { "osm_id": "11795085548", "name": "RM Masakan Padang", "amenity": "restaurant", "shop": null, "railway": null, "jenis_fasilitas": "kuliner", "kategori_final": "Kuliner" }, "geometry": { "type": "Point", "coordinates": [ 107.0020036, -6.2861946 ] } },
{ "type": "Feature", "properties": { "osm_id": "11853269848", "name": "Payakumbuah Masakan Padang", "amenity": "restaurant", "shop": null, "railway": null, "jenis_fasilitas": "kuliner", "kategori_final": "Kuliner" }, "geometry": { "type": "Point", "coordinates": [ 107.0081393, -6.2454615 ] } },
{ "type": "Feature", "properties": { "osm_id": "11186135859", "name": "Pecel Lele Cak Rony", "amenity": "restaurant", "shop": null, "railway": null, "jenis_fasilitas": "kuliner", "kategori_final": "Kuliner" }, "geometry": { "type": "Point", "coordinates": [ 106.9968784, -6.2949779 ] } },
{ "type": "Feature", "properties": { "osm_id": "11211978436", "name": "Warteg Subsidi Bahari", "amenity": "restaurant", "shop": null, "railway": null, "jenis_fasilitas": "kuliner", "kategori_final": "Kuliner" }, "geometry": { "type": "Point", "coordinates": [ 106.9955279, -6.2585921 ] } },
{ "type": "Feature", "properties": { "osm_id": "11414130295", "name": "Rumah Naira", "amenity": "restaurant", "shop": null, "railway": null, "jenis_fasilitas": "kuliner", "kategori_final": "Kuliner" }, "geometry": { "type": "Point", "coordinates": [ 107.0072808, -6.2000259 ] } },
{ "type": "Feature", "properties": { "osm_id": "11655186581", "name": "Doyan Ayam Rawalumbu, Bekasi", "amenity": "restaurant", "shop": null, "railway": null, "jenis_fasilitas": "kuliner", "kategori_final": "Kuliner" }, "geometry": { "type": "Point", "coordinates": [ 107.0007997, -6.2730998 ] } },
{ "type": "Feature", "properties": { "osm_id": "11409138593", "name": "Warung Nasi Kuningan \"Teteh\"", "amenity": "restaurant", "shop": null, "railway": null, "jenis_fasilitas": "kuliner", "kategori_final": "Kuliner" }, "geometry": { "type": "Point", "coordinates": [ 107.0067936, -6.2682025 ] } },
{ "type": "Feature", "properties": { "osm_id": "11070474658", "name": "Bakmi Kenanga", "amenity": "restaurant", "shop": null, "railway": null, "jenis_fasilitas": "kuliner", "kategori_final": "Kuliner" }, "geometry": { "type": "Point", "coordinates": [ 106.936261, -6.2853306 ] } },
{ "type": "Feature", "properties": { "osm_id": "11070474659", "name": "Mie Ayam Idola", "amenity": "restaurant", "shop": null, "railway": null, "jenis_fasilitas": "kuliner", "kategori_final": "Kuliner" }, "geometry": { "type": "Point", "coordinates": [ 106.9362429, -6.2853613 ] } },
{ "type": "Feature", "properties": { "osm_id": "11021358828", "name": "Warung Tegal TM", "amenity": "restaurant", "shop": null, "railway": null, "jenis_fasilitas": "kuliner", "kategori_final": "Kuliner" }, "geometry": { "type": "Point", "coordinates": [ 106.9980336, -6.2805653 ] } },
{ "type": "Feature", "properties": { "osm_id": "11021358832", "name": "Soto Mie Bogor", "amenity": "restaurant", "shop": null, "railway": null, "jenis_fasilitas": "kuliner", "kategori_final": "Kuliner" }, "geometry": { "type": "Point", "coordinates": [ 106.9979937, -6.2806653 ] } },
{ "type": "Feature", "properties": { "osm_id": "11114070513", "name": "Nasi Bebek Khas Madura", "amenity": "restaurant", "shop": null, "railway": null, "jenis_fasilitas": "kuliner", "kategori_final": "Kuliner" }, "geometry": { "type": "Point", "coordinates": [ 106.9991334, -6.2953261 ] } },
{ "type": "Feature", "properties": { "osm_id": "11141815673", "name": "LU'MIERE Grand Metropolitan", "amenity": "restaurant", "shop": null, "railway": null, "jenis_fasilitas": "kuliner", "kategori_final": "Kuliner" }, "geometry": { "type": "Point", "coordinates": [ 106.9844682, -6.2492185 ] } },
{ "type": "Feature", "properties": { "osm_id": "10744907928", "name": "warung nasi bebek", "amenity": "restaurant", "shop": null, "railway": null, "jenis_fasilitas": "kuliner", "kategori_final": "Kuliner" }, "geometry": { "type": "Point", "coordinates": [ 107.010718, -6.2056653 ] } },
{ "type": "Feature", "properties": { "osm_id": "10617268282", "name": "Soto Ayam Mbak Lily", "amenity": "restaurant", "shop": null, "railway": null, "jenis_fasilitas": "kuliner", "kategori_final": "Kuliner" }, "geometry": { "type": "Point", "coordinates": [ 106.9997253, -6.2948025 ] } },
{ "type": "Feature", "properties": { "osm_id": "10965533438", "name": "Sate Padang", "amenity": "restaurant", "shop": null, "railway": null, "jenis_fasilitas": "kuliner", "kategori_final": "Kuliner" }, "geometry": { "type": "Point", "coordinates": [ 107.0025027, -6.2863609 ] } },
{ "type": "Feature", "properties": { "osm_id": "11006934130", "name": "Soto Ayam Laa-PINDO", "amenity": "restaurant", "shop": null, "railway": null, "jenis_fasilitas": "kuliner", "kategori_final": "Kuliner" }, "geometry": { "type": "Point", "coordinates": [ 107.0024605, -6.284776 ] } },
{ "type": "Feature", "properties": { "osm_id": "10744907930", "name": "Mie Ayam", "amenity": "restaurant", "shop": null, "railway": null, "jenis_fasilitas": "kuliner", "kategori_final": "Kuliner" }, "geometry": { "type": "Point", "coordinates": [ 107.0141233, -6.2062311 ] } },
{ "type": "Feature", "properties": { "osm_id": "10744907931", "name": "Mie Ayam", "amenity": "restaurant", "shop": null, "railway": null, "jenis_fasilitas": "kuliner", "kategori_final": "Kuliner" }, "geometry": { "type": "Point", "coordinates": [ 107.0154312, -6.2041484 ] } },
{ "type": "Feature", "properties": { "osm_id": "10024533261", "name": "DAMANKA, Bekasi Selatan.", "amenity": "restaurant", "shop": null, "railway": null, "jenis_fasilitas": "kuliner", "kategori_final": "Kuliner" }, "geometry": { "type": "Point", "coordinates": [ 106.9691195, -6.2795608 ] } },
{ "type": "Feature", "properties": { "osm_id": "10041234563", "name": "Soto Ayam Ceker Surabaya", "amenity": "restaurant", "shop": null, "railway": null, "jenis_fasilitas": "kuliner", "kategori_final": "Kuliner" }, "geometry": { "type": "Point", "coordinates": [ 106.9983632, -6.2951251 ] } },
{ "type": "Feature", "properties": { "osm_id": "9899766079", "name": "Soto Betawi AWWA", "amenity": "restaurant", "shop": null, "railway": null, "jenis_fasilitas": "kuliner", "kategori_final": "Kuliner" }, "geometry": { "type": "Point", "coordinates": [ 107.0221721, -6.2137973 ] } },
{ "type": "Feature", "properties": { "osm_id": "10235984676", "name": "Pecel Lele Eka Jaya", "amenity": "restaurant", "shop": null, "railway": null, "jenis_fasilitas": "kuliner", "kategori_final": "Kuliner" }, "geometry": { "type": "Point", "coordinates": [ 107.0162206, -6.3206574 ] } },
{ "type": "Feature", "properties": { "osm_id": "10561669283", "name": "Mie Ayam Bakso Echo Barokah", "amenity": "restaurant", "shop": null, "railway": null, "jenis_fasilitas": "kuliner", "kategori_final": "Kuliner" }, "geometry": { "type": "Point", "coordinates": [ 107.0000454, -6.2896827 ] } },
{ "type": "Feature", "properties": { "osm_id": "10043938133", "name": "Nasi Uduk Pecel Lele Mas Kasirun (Cab Kranggan)", "amenity": "restaurant", "shop": null, "railway": null, "jenis_fasilitas": "kuliner", "kategori_final": "Kuliner" }, "geometry": { "type": "Point", "coordinates": [ 106.9990652, -6.2951913 ] } },
{ "type": "Feature", "properties": { "osm_id": "9755175226", "name": "Pempek Gaby Kranji", "amenity": "restaurant", "shop": null, "railway": null, "jenis_fasilitas": "kuliner", "kategori_final": "Kuliner" }, "geometry": { "type": "Point", "coordinates": [ 106.9795798, -6.22515 ] } },
{ "type": "Feature", "properties": { "osm_id": "9755201730", "name": "Holywings Bekasi - Margajaya", "amenity": "restaurant", "shop": null, "railway": null, "jenis_fasilitas": "kuliner", "kategori_final": "Kuliner" }, "geometry": { "type": "Point", "coordinates": [ 107.0032476, -6.2251327 ] } },
{ "type": "Feature", "properties": { "osm_id": "9850365017", "name": "Sushi Tei", "amenity": "restaurant", "shop": null, "railway": null, "jenis_fasilitas": "kuliner", "kategori_final": "Kuliner" }, "geometry": { "type": "Point", "coordinates": [ 107.0021986, -6.2252698 ] } },
{ "type": "Feature", "properties": { "osm_id": "9774627484", "name": "Solaria", "amenity": "restaurant", "shop": null, "railway": null, "jenis_fasilitas": "kuliner", "kategori_final": "Kuliner" }, "geometry": { "type": "Point", "coordinates": [ 106.9567414, -6.2479596 ] } },
{ "type": "Feature", "properties": { "osm_id": "9848022617", "name": "Taliwang Bali", "amenity": "restaurant", "shop": null, "railway": null, "jenis_fasilitas": "kuliner", "kategori_final": "Kuliner" }, "geometry": { "type": "Point", "coordinates": [ 107.0004539, -6.2261011 ] } },
{ "type": "Feature", "properties": { "osm_id": "8174072563", "name": "Bekasi Barat", "amenity": null, "shop": null, "railway": "station", "jenis_fasilitas": "stasiun_lrt", "kategori_final": "Transportasi" }, "geometry": { "type": "Point", "coordinates": [ 106.9904237, -6.2529489 ] } },
{ "type": "Feature", "properties": { "osm_id": "8174072566", "name": "Jatibening Baru", "amenity": null, "shop": null, "railway": "station", "jenis_fasilitas": "stasiun_lrt", "kategori_final": "Transportasi" }, "geometry": { "type": "Point", "coordinates": [ 106.9279199, -6.2577476 ] } },
{ "type": "Feature", "properties": { "osm_id": "4148235211", "name": "Grand Mall Bekasi", "amenity": null, "shop": "mall", "railway": null, "jenis_fasilitas": "mall", "kategori_final": "Mall" }, "geometry": { "type": "Point", "coordinates": [ 106.9834391, -6.2283366 ] } },
{ "type": "Feature", "properties": { "osm_id": "8174072564", "name": "Cikunir 2", "amenity": null, "shop": null, "railway": "station", "jenis_fasilitas": "stasiun_lrt", "kategori_final": "Transportasi" }, "geometry": { "type": "Point", "coordinates": [ 106.9632112, -6.2546502 ] } },
{ "type": "Feature", "properties": { "osm_id": "8174072565", "name": "Cikunir 1", "amenity": null, "shop": null, "railway": "station", "jenis_fasilitas": "stasiun_lrt", "kategori_final": "Transportasi" }, "geometry": { "type": "Point", "coordinates": [ 106.9518734, -6.2566001 ] } },
{ "type": "Feature", "properties": { "osm_id": "3865048788", "name": "Cakung", "amenity": null, "shop": null, "railway": "station", "jenis_fasilitas": "stasiun_lrt", "kategori_final": "Transportasi" }, "geometry": { "type": "Point", "coordinates": [ 106.9524791, -6.219081 ] } },
{ "type": "Feature", "properties": { "osm_id": "316743611", "name": "Kranji", "amenity": null, "shop": null, "railway": "station", "jenis_fasilitas": "stasiun_lrt", "kategori_final": "Transportasi" }, "geometry": { "type": "Point", "coordinates": [ 106.9798267, -6.2245133 ] } },
{ "type": "Feature", "properties": { "osm_id": "3469731328", "name": "Bekasi", "amenity": null, "shop": null, "railway": "station", "jenis_fasilitas": "stasiun_lrt", "kategori_final": "Transportasi" }, "geometry": { "type": "Point", "coordinates": [ 106.9987436, -6.2362143 ] } },
{ "type": "Feature", "properties": { "osm_id": "5155429394", "name": "Bekasi Timur", "amenity": null, "shop": null, "railway": "station", "jenis_fasilitas": "stasiun_lrt", "kategori_final": "Transportasi" }, "geometry": { "type": "Point", "coordinates": [ 107.0182065, -6.246862 ] } },
{ "type": "Feature", "properties": { "osm_id": "13725029862", "name": "RM Salero Raso", "amenity": "restaurant", "shop": null, "railway": null, "jenis_fasilitas": "kuliner", "kategori_final": "Kuliner" }, "geometry": { "type": "Point", "coordinates": [ 106.978683, -6.3397247 ] } },
{ "type": "Feature", "properties": { "osm_id": "13727164646", "name": "Warung Nasi Jatiasih", "amenity": "restaurant", "shop": null, "railway": null, "jenis_fasilitas": "kuliner", "kategori_final": "Kuliner" }, "geometry": { "type": "Point", "coordinates": [ 106.9510164, -6.2945083 ] } },
{ "type": "Feature", "properties": { "osm_id": "13566417534", "name": "Food Circle 69", "amenity": "restaurant", "shop": null, "railway": null, "jenis_fasilitas": "kuliner", "kategori_final": "Kuliner" }, "geometry": { "type": "Point", "coordinates": [ 106.9984717, -6.2951982 ] } },
{ "type": "Feature", "properties": { "osm_id": "13568666942", "name": "Mie Ayam Bakso TOLE", "amenity": "restaurant", "shop": null, "railway": null, "jenis_fasilitas": "kuliner", "kategori_final": "Kuliner" }, "geometry": { "type": "Point", "coordinates": [ 107.0087908, -6.2739097 ] } },
{ "type": "Feature", "properties": { "osm_id": "13550999824", "name": "Chaniago Tigo", "amenity": "restaurant", "shop": null, "railway": null, "jenis_fasilitas": "kuliner", "kategori_final": "Kuliner" }, "geometry": { "type": "Point", "coordinates": [ 107.0034502, -6.2920277 ] } },
{ "type": "Feature", "properties": { "osm_id": "13531369248", "name": "Sate Tuban", "amenity": "restaurant", "shop": null, "railway": null, "jenis_fasilitas": "kuliner", "kategori_final": "Kuliner" }, "geometry": { "type": "Point", "coordinates": [ 107.0087937, -6.2738003 ] } },
{ "type": "Feature", "properties": { "osm_id": "13366492232", "name": "Mie Yamin Layar Putih", "amenity": "restaurant", "shop": null, "railway": null, "jenis_fasilitas": "kuliner", "kategori_final": "Kuliner" }, "geometry": { "type": "Point", "coordinates": [ 107.0155924, -6.2966128 ] } },
{ "type": "Feature", "properties": { "osm_id": "13366492238", "name": "Warteg Sumber Gizi Mustikasari", "amenity": "restaurant", "shop": null, "railway": null, "jenis_fasilitas": "kuliner", "kategori_final": "Kuliner" }, "geometry": { "type": "Point", "coordinates": [ 107.0157028, -6.2966581 ] } },
{ "type": "Feature", "properties": { "osm_id": "13366492241", "name": "Mie Ayam Bakso Mas Bedjo Wonogiri", "amenity": "restaurant", "shop": null, "railway": null, "jenis_fasilitas": "kuliner", "kategori_final": "Kuliner" }, "geometry": { "type": "Point", "coordinates": [ 107.0157719, -6.2966683 ] } },
{ "type": "Feature", "properties": { "osm_id": "13523722042", "name": "Bar-Bar Mania", "amenity": "restaurant", "shop": null, "railway": null, "jenis_fasilitas": "kuliner", "kategori_final": "Kuliner" }, "geometry": { "type": "Point", "coordinates": [ 106.9956623, -6.2828027 ] } },
{ "type": "Feature", "properties": { "osm_id": "4440521538", "name": "HAS Fried Chicken", "amenity": "restaurant", "shop": null, "railway": null, "jenis_fasilitas": "kuliner", "kategori_final": "Kuliner" }, "geometry": { "type": "Point", "coordinates": [ 107.027134, -6.308276 ] } },
{ "type": "Feature", "properties": { "osm_id": "4496582396", "name": "Katering Mas Riono Widjonarko", "amenity": "restaurant", "shop": null, "railway": null, "jenis_fasilitas": "kuliner", "kategori_final": "Kuliner" }, "geometry": { "type": "Point", "coordinates": [ 106.9375205, -6.3178642 ] } },
{ "type": "Feature", "properties": { "osm_id": "4440521137", "name": "Zamrud Bakery", "amenity": "restaurant", "shop": null, "railway": null, "jenis_fasilitas": "kuliner", "kategori_final": "Kuliner" }, "geometry": { "type": "Point", "coordinates": [ 107.0214921, -6.3143264 ] } },
{ "type": "Feature", "properties": { "osm_id": "4440521498", "name": "Nasi Padang Sederhana", "amenity": "restaurant", "shop": null, "railway": null, "jenis_fasilitas": "kuliner", "kategori_final": "Kuliner" }, "geometry": { "type": "Point", "coordinates": [ 107.0228867, -6.3094622 ] } },
{ "type": "Feature", "properties": { "osm_id": "5035130025", "name": "Bakso Sukowati", "amenity": "restaurant", "shop": null, "railway": null, "jenis_fasilitas": "kuliner", "kategori_final": "Kuliner" }, "geometry": { "type": "Point", "coordinates": [ 107.0141695, -6.3187256 ] } },
{ "type": "Feature", "properties": { "osm_id": "4691561158", "name": "Soto Mie Bogor \"SinAr\"", "amenity": "restaurant", "shop": null, "railway": null, "jenis_fasilitas": "kuliner", "kategori_final": "Kuliner" }, "geometry": { "type": "Point", "coordinates": [ 106.9716124, -6.2708337 ] } },
{ "type": "Feature", "properties": { "osm_id": "4394980616", "name": "HEMA Resto", "amenity": "restaurant", "shop": null, "railway": null, "jenis_fasilitas": "kuliner", "kategori_final": "Kuliner" }, "geometry": { "type": "Point", "coordinates": [ 106.9875335, -6.275668 ] } },
{ "type": "Feature", "properties": { "osm_id": "13720559494", "name": "Beras M Raffi", "amenity": null, "shop": "supermarket", "railway": null, "jenis_fasilitas": "supermarket", "kategori_final": "Supermarket" }, "geometry": { "type": "Point", "coordinates": [ 107.0006987, -6.2958591 ] } },
{ "type": "Feature", "properties": { "osm_id": "4394980621", "name": "Mie Pangsit Simpur", "amenity": "restaurant", "shop": null, "railway": null, "jenis_fasilitas": "kuliner", "kategori_final": "Kuliner" }, "geometry": { "type": "Point", "coordinates": [ 106.9890185, -6.2766703 ] } },
{ "type": "Feature", "properties": { "osm_id": "4393080122", "name": "Pizza Hut", "amenity": "restaurant", "shop": null, "railway": null, "jenis_fasilitas": "kuliner", "kategori_final": "Kuliner" }, "geometry": { "type": "Point", "coordinates": [ 106.990893, -6.2778592 ] } },
{ "type": "Feature", "properties": { "osm_id": "13727170452", "name": "TB Ikhwan Utama", "amenity": null, "shop": "supermarket", "railway": null, "jenis_fasilitas": "supermarket", "kategori_final": "Supermarket" }, "geometry": { "type": "Point", "coordinates": [ 106.9651448, -6.2270486 ] } },
{ "type": "Feature", "properties": { "osm_id": "4393160103", "name": "Restoran Sederhana", "amenity": "restaurant", "shop": null, "railway": null, "jenis_fasilitas": "kuliner", "kategori_final": "Kuliner" }, "geometry": { "type": "Point", "coordinates": [ 106.9882017, -6.2761439 ] } },
{ "type": "Feature", "properties": { "osm_id": "13727193075", "name": "Warung Madura", "amenity": null, "shop": "supermarket", "railway": null, "jenis_fasilitas": "supermarket", "kategori_final": "Supermarket" }, "geometry": { "type": "Point", "coordinates": [ 106.9653365, -6.2266686 ] } },
{ "type": "Feature", "properties": { "osm_id": "4432072873", "name": "Ayam Lepas", "amenity": "restaurant", "shop": null, "railway": null, "jenis_fasilitas": "kuliner", "kategori_final": "Kuliner" }, "geometry": { "type": "Point", "coordinates": [ 107.0226203, -6.3096197 ] } },
{ "type": "Feature", "properties": { "osm_id": "13722869766", "name": "Alfamart", "amenity": null, "shop": "supermarket", "railway": null, "jenis_fasilitas": "supermarket", "kategori_final": "Supermarket" }, "geometry": { "type": "Point", "coordinates": [ 107.0345595, -6.2395183 ] } },
{ "type": "Feature", "properties": { "osm_id": "4432072874", "name": "Yokobento", "amenity": "restaurant", "shop": null, "railway": null, "jenis_fasilitas": "kuliner", "kategori_final": "Kuliner" }, "geometry": { "type": "Point", "coordinates": [ 107.0222423, -6.3099573 ] } },
{ "type": "Feature", "properties": { "osm_id": "4394980624", "name": "Restoran Zharrini", "amenity": "restaurant", "shop": null, "railway": null, "jenis_fasilitas": "kuliner", "kategori_final": "Kuliner" }, "geometry": { "type": "Point", "coordinates": [ 106.9894926, -6.2769531 ] } },
{ "type": "Feature", "properties": { "osm_id": "4432048510", "name": "McDonald Mustikajaya", "amenity": "restaurant", "shop": null, "railway": null, "jenis_fasilitas": "kuliner", "kategori_final": "Kuliner" }, "geometry": { "type": "Point", "coordinates": [ 107.0158347, -6.3213575 ] } },
{ "type": "Feature", "properties": { "osm_id": "2640375580", "name": "Dapur Betawi", "amenity": "restaurant", "shop": null, "railway": null, "jenis_fasilitas": "kuliner", "kategori_final": "Kuliner" }, "geometry": { "type": "Point", "coordinates": [ 106.9462011, -6.3289632 ] } },
{ "type": "Feature", "properties": { "osm_id": "10748192021", "name": "Intermedia Book Store", "amenity": null, "shop": "supermarket", "railway": null, "jenis_fasilitas": "supermarket", "kategori_final": "Supermarket" }, "geometry": { "type": "Point", "coordinates": [ 107.0201429, -6.3166534 ] } },
{ "type": "Feature", "properties": { "osm_id": "2640371223", "name": "Pondok Sate Jatisari", "amenity": "restaurant", "shop": null, "railway": null, "jenis_fasilitas": "kuliner", "kategori_final": "Kuliner" }, "geometry": { "type": "Point", "coordinates": [ 106.9449806, -6.3409594 ] } },
{ "type": "Feature", "properties": { "osm_id": "3483644710", "name": null, "amenity": "restaurant", "shop": null, "railway": null, "jenis_fasilitas": "kuliner", "kategori_final": "Kuliner" }, "geometry": { "type": "Point", "coordinates": [ 106.9327673, -6.3095654 ] } },
{ "type": "Feature", "properties": { "osm_id": "12645021899", "name": "WAKABI STORE", "amenity": null, "shop": "supermarket", "railway": null, "jenis_fasilitas": "supermarket", "kategori_final": "Supermarket" }, "geometry": { "type": "Point", "coordinates": [ 106.9114278, -6.2814423 ] } },
{ "type": "Feature", "properties": { "osm_id": "13506802721", "name": "pasar", "amenity": null, "shop": "supermarket", "railway": null, "jenis_fasilitas": "supermarket", "kategori_final": "Supermarket" }, "geometry": { "type": "Point", "coordinates": [ 106.9944544, -6.2399081 ] } },
{ "type": "Feature", "properties": { "osm_id": "2640621409", "name": "Restoran Pizza Hut - Komsen Jatiasih Bekasi", "amenity": "restaurant", "shop": null, "railway": null, "jenis_fasilitas": "kuliner", "kategori_final": "Kuliner" }, "geometry": { "type": "Point", "coordinates": [ 106.9599661, -6.2927425 ] } },
{ "type": "Feature", "properties": { "osm_id": "2775303069", "name": "Mas Thole, Bakso & Mie Ayam", "amenity": "restaurant", "shop": null, "railway": null, "jenis_fasilitas": "kuliner", "kategori_final": "Kuliner" }, "geometry": { "type": "Point", "coordinates": [ 106.9532525, -6.3291014 ] } },
{ "type": "Feature", "properties": { "osm_id": "8713659853", "name": "Total Buah Segar", "amenity": null, "shop": "supermarket", "railway": null, "jenis_fasilitas": "supermarket", "kategori_final": "Supermarket" }, "geometry": { "type": "Point", "coordinates": [ 107.0023134, -6.2280543 ] } },
{ "type": "Feature", "properties": { "osm_id": "7647951818", "name": "Mama Foods Agen Frozen Foods", "amenity": null, "shop": "supermarket", "railway": null, "jenis_fasilitas": "supermarket", "kategori_final": "Supermarket" }, "geometry": { "type": "Point", "coordinates": [ 107.00627, -6.2277195 ] } },
{ "type": "Feature", "properties": { "osm_id": "2285199213", "name": "Jamblang", "amenity": "marketplace", "shop": null, "railway": null, "jenis_fasilitas": "pasar", "kategori_final": "Pasar" }, "geometry": { "type": "Point", "coordinates": [ 106.9637676, -6.2591674 ] } },
{ "type": "Feature", "properties": { "osm_id": "2639372990", "name": "Pasar Kranggan", "amenity": "marketplace", "shop": null, "railway": null, "jenis_fasilitas": "pasar", "kategori_final": "Pasar" }, "geometry": { "type": "Point", "coordinates": [ 106.9238123, -6.3645703 ] } },
{ "type": "Feature", "properties": { "osm_id": "9734482899", "name": "Naga Swalayan Bekasi", "amenity": null, "shop": "supermarket", "railway": null, "jenis_fasilitas": "supermarket", "kategori_final": "Supermarket" }, "geometry": { "type": "Point", "coordinates": [ 106.9212279, -6.2953285 ] } },
{ "type": "Feature", "properties": { "osm_id": "9752932232", "name": "Living Plaza Harapan Indah", "amenity": null, "shop": "supermarket", "railway": null, "jenis_fasilitas": "supermarket", "kategori_final": "Supermarket" }, "geometry": { "type": "Point", "coordinates": [ 106.9746085, -6.1843068 ] } },
{ "type": "Feature", "properties": { "osm_id": "9468284161", "name": "Toko Pakaian Angga Bekasi", "amenity": null, "shop": "supermarket", "railway": null, "jenis_fasilitas": "supermarket", "kategori_final": "Supermarket" }, "geometry": { "type": "Point", "coordinates": [ 107.0090608, -6.1766013 ] } },
{ "type": "Feature", "properties": { "osm_id": "13075194678", "name": "Pasar Baru Bekasi", "amenity": "marketplace", "shop": null, "railway": null, "jenis_fasilitas": "pasar", "kategori_final": "Pasar" }, "geometry": { "type": "Point", "coordinates": [ 107.0132674, -6.2488433 ] } },
{ "type": "Feature", "properties": { "osm_id": "4243818036", "name": "Naga Swalayan Kranji", "amenity": null, "shop": "supermarket", "railway": null, "jenis_fasilitas": "supermarket", "kategori_final": "Supermarket" }, "geometry": { "type": "Point", "coordinates": [ 106.9795567, -6.2250838 ] } },
{ "type": "Feature", "properties": { "osm_id": "10744907929", "name": "Tukang Sayur", "amenity": "marketplace", "shop": null, "railway": null, "jenis_fasilitas": "pasar", "kategori_final": "Pasar" }, "geometry": { "type": "Point", "coordinates": [ 107.0140066, -6.2060247 ] } },
{ "type": "Feature", "properties": { "osm_id": "4253862262", "name": "Gudang Buah Segar Abadi Ruko Kranji", "amenity": null, "shop": "supermarket", "railway": null, "jenis_fasilitas": "supermarket", "kategori_final": "Supermarket" }, "geometry": { "type": "Point", "coordinates": [ 106.9766656, -6.2291892 ] } },
{ "type": "Feature", "properties": { "osm_id": "4145874838", "name": "Giant Mega Bekasi Hypermall", "amenity": null, "shop": "supermarket", "railway": null, "jenis_fasilitas": "supermarket", "kategori_final": "Supermarket" }, "geometry": { "type": "Point", "coordinates": [ 106.9922246, -6.2493694 ] } },
{ "type": "Feature", "properties": { "osm_id": "4242795502", "name": "Superindo", "amenity": null, "shop": "supermarket", "railway": null, "jenis_fasilitas": "supermarket", "kategori_final": "Supermarket" }, "geometry": { "type": "Point", "coordinates": [ 107.0201748, -6.2074903 ] } },
{ "type": "Feature", "properties": { "osm_id": "4982527421", "name": "Alfa Midi", "amenity": null, "shop": "supermarket", "railway": null, "jenis_fasilitas": "supermarket", "kategori_final": "Supermarket" }, "geometry": { "type": "Point", "coordinates": [ 106.9471772, -6.3254855 ] } },
{ "type": "Feature", "properties": { "osm_id": "13727255179", "name": "Halte Angkot Perumahan Harapan", "amenity": "bus_station", "shop": null, "railway": null, "jenis_fasilitas": "terminal_halte", "kategori_final": "Transportasi" }, "geometry": { "type": "Point", "coordinates": [ 107.0016591, -6.2411642 ] } },
{ "type": "Feature", "properties": { "osm_id": "1848639594", "name": null, "amenity": "marketplace", "shop": null, "railway": null, "jenis_fasilitas": "pasar", "kategori_final": "Pasar" }, "geometry": { "type": "Point", "coordinates": [ 106.9444471, -6.2915177 ] } },
{ "type": "Feature", "properties": { "osm_id": "4432065932", "name": "Alfamidi", "amenity": null, "shop": "supermarket", "railway": null, "jenis_fasilitas": "supermarket", "kategori_final": "Supermarket" }, "geometry": { "type": "Point", "coordinates": [ 107.022538, -6.3100353 ] } },
{ "type": "Feature", "properties": { "osm_id": "4541882590", "name": "Alfamidi", "amenity": null, "shop": "supermarket", "railway": null, "jenis_fasilitas": "supermarket", "kategori_final": "Supermarket" }, "geometry": { "type": "Point", "coordinates": [ 107.0142466, -6.2589799 ] } },
{ "type": "Feature", "properties": { "osm_id": "13566388801", "name": "Sumber Alam company bus terminal", "amenity": "bus_station", "shop": null, "railway": null, "jenis_fasilitas": "terminal_halte", "kategori_final": "Transportasi" }, "geometry": { "type": "Point", "coordinates": [ 106.9747146, -6.197334 ] } },
{ "type": "Feature", "properties": { "osm_id": "10845342518", "name": "Sumarecon Mall Bekasi", "amenity": null, "shop": "mall", "railway": null, "jenis_fasilitas": "mall", "kategori_final": "Mall" }, "geometry": { "type": "Point", "coordinates": [ 107.0015217, -6.2256008 ] } },
{ "type": "Feature", "properties": { "osm_id": "11415068296", "name": null, "amenity": null, "shop": null, "railway": null, "jenis_fasilitas": "lainnya", "kategori_final": "Lainnya" }, "geometry": { "type": "Point", "coordinates": [ 106.9900087, -6.2534794 ] } },
{ "type": "Feature", "properties": { "osm_id": "988658747", "name": "Superindo", "amenity": null, "shop": "supermarket", "railway": null, "jenis_fasilitas": "supermarket", "kategori_final": "Supermarket" }, "geometry": { "type": "Point", "coordinates": [ 106.9691274, -6.2488745 ] } },
{ "type": "Feature", "properties": { "osm_id": "2696042265", "name": "GS Supermarket", "amenity": null, "shop": "supermarket", "railway": null, "jenis_fasilitas": "supermarket", "kategori_final": "Supermarket" }, "geometry": { "type": "Point", "coordinates": [ 106.9910525, -6.2780371 ] } },
{ "type": "Feature", "properties": { "osm_id": "13286867333", "name": null, "amenity": null, "shop": "mall", "railway": null, "jenis_fasilitas": "mall", "kategori_final": "Mall" }, "geometry": { "type": "Point", "coordinates": [ 106.987075, -6.1875616 ] } },
{ "type": "Feature", "properties": { "osm_id": "6369704705", "name": "Transmart Juanda Bekasi", "amenity": null, "shop": "mall", "railway": null, "jenis_fasilitas": "mall", "kategori_final": "Mall" }, "geometry": { "type": "Point", "coordinates": [ 107.0169279, -6.2492031 ] } },
{ "type": "Feature", "properties": { "osm_id": "9201422252", "name": "Kota Harapan Indah 1", "amenity": "bus_station", "shop": null, "railway": null, "jenis_fasilitas": "terminal_halte", "kategori_final": "Transportasi" }, "geometry": { "type": "Point", "coordinates": [ 106.973352, -6.1935048 ] } },
{ "type": "Feature", "properties": { "osm_id": "9201422251", "name": "Kota Harapan Indah 2", "amenity": "bus_station", "shop": null, "railway": null, "jenis_fasilitas": "terminal_halte", "kategori_final": "Transportasi" }, "geometry": { "type": "Point", "coordinates": [ 106.9735941, -6.193824 ] } },
{ "type": "Feature", "properties": { "osm_id": "10065397673", "name": null, "amenity": "parking_entrance", "shop": null, "railway": null, "jenis_fasilitas": "lainnya", "kategori_final": "Lainnya" }, "geometry": { "type": "Point", "coordinates": [ 107.0013986, -6.2251881 ] } },
{ "type": "Feature", "properties": { "osm_id": "9032119566", "name": null, "amenity": "parking_entrance", "shop": null, "railway": null, "jenis_fasilitas": "lainnya", "kategori_final": "Lainnya" }, "geometry": { "type": "Point", "coordinates": [ 106.984275, -6.2490566 ] } },
{ "type": "Feature", "properties": { "osm_id": "9032119571", "name": null, "amenity": "parking_entrance", "shop": null, "railway": null, "jenis_fasilitas": "lainnya", "kategori_final": "Lainnya" }, "geometry": { "type": "Point", "coordinates": [ 106.9843182, -6.2490718 ] } },
{ "type": "Feature", "properties": { "osm_id": "11407763887", "name": "Terminal Bayangan Jatibening", "amenity": "bus_station", "shop": null, "railway": null, "jenis_fasilitas": "terminal_halte", "kategori_final": "Transportasi" }, "geometry": { "type": "Point", "coordinates": [ 106.9421733, -6.2577505 ] } },
{ "type": "Feature", "properties": { "osm_id": "4152501731", "name": "Mall Citra Gran", "amenity": null, "shop": "mall", "railway": null, "jenis_fasilitas": "mall", "kategori_final": "Mall" }, "geometry": { "type": "Point", "coordinates": [ 106.9276507, -6.3823404 ] } },
{ "type": "Feature", "properties": { "osm_id": "4152523896", "name": "Mal Ciputra", "amenity": null, "shop": "mall", "railway": null, "jenis_fasilitas": "mall", "kategori_final": "Mall" }, "geometry": { "type": "Point", "coordinates": [ 106.92613, -6.3823382 ] } },
{ "type": "Feature", "properties": { "osm_id": "4235138356", "name": "Halte Bulak Kapal", "amenity": "bus_station", "shop": null, "railway": null, "jenis_fasilitas": "terminal_halte", "kategori_final": "Transportasi" }, "geometry": { "type": "Point", "coordinates": [ 107.0249708, -6.2498242 ] } },
{ "type": "Feature", "properties": { "osm_id": "4148239279", "name": "Grand Metropolitan Main Entrance", "amenity": null, "shop": "mall", "railway": null, "jenis_fasilitas": "mall", "kategori_final": "Mall" }, "geometry": { "type": "Point", "coordinates": [ 106.9851169, -6.2487841 ] } },
{ "type": "Feature", "properties": { "osm_id": "4152487062", "name": "Grand Metropolitan Side Entrance", "amenity": null, "shop": "mall", "railway": null, "jenis_fasilitas": "mall", "kategori_final": "Mall" }, "geometry": { "type": "Point", "coordinates": [ 106.984438, -6.2487617 ] } },
{ "type": "Feature", "properties": { "osm_id": "2323138582", "name": "Trans Galaxi", "amenity": "bus_station", "shop": null, "railway": null, "jenis_fasilitas": "terminal_halte", "kategori_final": "Transportasi" }, "geometry": { "type": "Point", "coordinates": [ 106.9716251, -6.2690755 ] } },
{ "type": "Feature", "properties": { "osm_id": "4373234411", "name": "BOLT! Zone Grand Mall Bekasi", "amenity": null, "shop": "mall", "railway": null, "jenis_fasilitas": "mall", "kategori_final": "Mall" }, "geometry": { "type": "Point", "coordinates": [ 106.9836232, -6.2278703 ] } },
{ "type": "Feature", "properties": { "osm_id": "9201422126", "name": "Tanah Apit", "amenity": "bus_station", "shop": null, "railway": null, "jenis_fasilitas": "terminal_halte", "kategori_final": "Transportasi" }, "geometry": { "type": "Point", "coordinates": [ 106.9760878, -6.1827547 ] } },
{ "type": "Feature", "properties": { "osm_id": "4240811503", "name": "Bekasi Trade Center", "amenity": null, "shop": "mall", "railway": null, "jenis_fasilitas": "mall", "kategori_final": "Mall" }, "geometry": { "type": "Point", "coordinates": [ 107.0204477, -6.2596329 ] } },
{ "type": "Feature", "properties": { "osm_id": "4242284526", "name": "Lotte Mart Bekasi Junction", "amenity": null, "shop": "mall", "railway": null, "jenis_fasilitas": "mall", "kategori_final": "Mall" }, "geometry": { "type": "Point", "coordinates": [ 107.0035702, -6.2410307 ] } },
{ "type": "Feature", "properties": { "osm_id": "9736201397", "name": "Casy Catering Mpasi Bayi", "amenity": "restaurant", "shop": null, "railway": null, "jenis_fasilitas": "kuliner", "kategori_final": "Kuliner" }, "geometry": { "type": "Point", "coordinates": [ 106.9234872, -6.2725382 ] } },
{ "type": "Feature", "properties": { "osm_id": "9737063026", "name": "Doyan Salad Bekasi", "amenity": "restaurant", "shop": null, "railway": null, "jenis_fasilitas": "kuliner", "kategori_final": "Kuliner" }, "geometry": { "type": "Point", "coordinates": [ 106.9846061, -6.2414842 ] } },
{ "type": "Feature", "properties": { "osm_id": "9734487030", "name": "Solaria", "amenity": "restaurant", "shop": null, "railway": null, "jenis_fasilitas": "kuliner", "kategori_final": "Kuliner" }, "geometry": { "type": "Point", "coordinates": [ 106.920955, -6.2955917 ] } },
{ "type": "Feature", "properties": { "osm_id": "9736180310", "name": "Pempek Gaby Jatiasih", "amenity": "restaurant", "shop": null, "railway": null, "jenis_fasilitas": "kuliner", "kategori_final": "Kuliner" }, "geometry": { "type": "Point", "coordinates": [ 106.9593267, -6.29633 ] } },
{ "type": "Feature", "properties": { "osm_id": "9742621234", "name": "SUSHIGAN!", "amenity": "restaurant", "shop": null, "railway": null, "jenis_fasilitas": "kuliner", "kategori_final": "Kuliner" }, "geometry": { "type": "Point", "coordinates": [ 106.9739369, -6.274169 ] } },
{ "type": "Feature", "properties": { "osm_id": "9742788887", "name": "PappaRich", "amenity": "restaurant", "shop": null, "railway": null, "jenis_fasilitas": "kuliner", "kategori_final": "Kuliner" }, "geometry": { "type": "Point", "coordinates": [ 106.9743794, -6.2740234 ] } },
{ "type": "Feature", "properties": { "osm_id": "9737075359", "name": "Casapatsong Kitchen Garden", "amenity": "restaurant", "shop": null, "railway": null, "jenis_fasilitas": "kuliner", "kategori_final": "Kuliner" }, "geometry": { "type": "Point", "coordinates": [ 106.9758601, -6.245056 ] } },
{ "type": "Feature", "properties": { "osm_id": "9737142431", "name": "Pempek Palembang Gaby", "amenity": "restaurant", "shop": null, "railway": null, "jenis_fasilitas": "kuliner", "kategori_final": "Kuliner" }, "geometry": { "type": "Point", "coordinates": [ 106.9953038, -6.2593925 ] } },
{ "type": "Feature", "properties": { "osm_id": "9671493363", "name": "Sushi Box", "amenity": "restaurant", "shop": null, "railway": null, "jenis_fasilitas": "kuliner", "kategori_final": "Kuliner" }, "geometry": { "type": "Point", "coordinates": [ 106.971471, -6.2596629 ] } },
{ "type": "Feature", "properties": { "osm_id": "9708815732", "name": "Simpang Raya", "amenity": "restaurant", "shop": null, "railway": null, "jenis_fasilitas": "kuliner", "kategori_final": "Kuliner" }, "geometry": { "type": "Point", "coordinates": [ 106.9280495, -6.2584755 ] } },
{ "type": "Feature", "properties": { "osm_id": "9708815733", "name": "Gokana", "amenity": "restaurant", "shop": null, "railway": null, "jenis_fasilitas": "kuliner", "kategori_final": "Kuliner" }, "geometry": { "type": "Point", "coordinates": [ 106.9278861, -6.2584771 ] } },
{ "type": "Feature", "properties": { "osm_id": "9708815731", "name": "Solaria", "amenity": "restaurant", "shop": null, "railway": null, "jenis_fasilitas": "kuliner", "kategori_final": "Kuliner" }, "geometry": { "type": "Point", "coordinates": [ 106.9279629, -6.2589601 ] } },
{ "type": "Feature", "properties": { "osm_id": "9653139781", "name": "Dapur Mbak Mur", "amenity": "restaurant", "shop": null, "railway": null, "jenis_fasilitas": "kuliner", "kategori_final": "Kuliner" }, "geometry": { "type": "Point", "coordinates": [ 106.9346905, -6.2563252 ] } },
{ "type": "Feature", "properties": { "osm_id": "9654986968", "name": "Fish Streat", "amenity": "restaurant", "shop": null, "railway": null, "jenis_fasilitas": "kuliner", "kategori_final": "Kuliner" }, "geometry": { "type": "Point", "coordinates": [ 106.9113609, -6.2668228 ] } },
{ "type": "Feature", "properties": { "osm_id": "9438506488", "name": "Sambal Hijau", "amenity": "restaurant", "shop": null, "railway": null, "jenis_fasilitas": "kuliner", "kategori_final": "Kuliner" }, "geometry": { "type": "Point", "coordinates": [ 106.9504401, -6.2637966 ] } },
{ "type": "Feature", "properties": { "osm_id": "9576929351", "name": "Kemang Bistro", "amenity": "restaurant", "shop": null, "railway": null, "jenis_fasilitas": "kuliner", "kategori_final": "Kuliner" }, "geometry": { "type": "Point", "coordinates": [ 106.9868953, -6.2705051 ] } },
{ "type": "Feature", "properties": { "osm_id": "9662393176", "name": "NomiNomi Delight", "amenity": "restaurant", "shop": null, "railway": null, "jenis_fasilitas": "kuliner", "kategori_final": "Kuliner" }, "geometry": { "type": "Point", "coordinates": [ 106.9713188, -6.2714661 ] } },
{ "type": "Feature", "properties": { "osm_id": "9671484932", "name": "Double U Steak", "amenity": "restaurant", "shop": null, "railway": null, "jenis_fasilitas": "kuliner", "kategori_final": "Kuliner" }, "geometry": { "type": "Point", "coordinates": [ 106.9696525, -6.2558388 ] } },
{ "type": "Feature", "properties": { "osm_id": "9655234927", "name": null, "amenity": "restaurant", "shop": null, "railway": null, "jenis_fasilitas": "kuliner", "kategori_final": "Kuliner" }, "geometry": { "type": "Point", "coordinates": [ 106.942648, -6.2565784 ] } },
{ "type": "Feature", "properties": { "osm_id": "9655414563", "name": "Gubug Makan Mang Engking", "amenity": "restaurant", "shop": null, "railway": null, "jenis_fasilitas": "kuliner", "kategori_final": "Kuliner" }, "geometry": { "type": "Point", "coordinates": [ 107.0022006, -6.2235017 ] } },
{ "type": "Feature", "properties": { "osm_id": "8704807927", "name": "Bakmi Jawa Miroso", "amenity": "restaurant", "shop": null, "railway": null, "jenis_fasilitas": "kuliner", "kategori_final": "Kuliner" }, "geometry": { "type": "Point", "coordinates": [ 106.9461635, -6.2630447 ] } },
{ "type": "Feature", "properties": { "osm_id": "8624199521", "name": "RM Pancuran Tujuh", "amenity": "restaurant", "shop": null, "railway": null, "jenis_fasilitas": "kuliner", "kategori_final": "Kuliner" }, "geometry": { "type": "Point", "coordinates": [ 107.0000294, -6.298188 ] } },
{ "type": "Feature", "properties": { "osm_id": "9183157056", "name": "Talaga Sampireun", "amenity": "restaurant", "shop": null, "railway": null, "jenis_fasilitas": "kuliner", "kategori_final": "Kuliner" }, "geometry": { "type": "Point", "coordinates": [ 106.958393, -6.2447349 ] } },
{ "type": "Feature", "properties": { "osm_id": "9375868173", "name": "Golden Lamian", "amenity": "restaurant", "shop": null, "railway": null, "jenis_fasilitas": "kuliner", "kategori_final": "Kuliner" }, "geometry": { "type": "Point", "coordinates": [ 106.9125508, -6.2724198 ] } },
{ "type": "Feature", "properties": { "osm_id": "9081435324", "name": "Soto Gading Kalibata", "amenity": "restaurant", "shop": null, "railway": null, "jenis_fasilitas": "kuliner", "kategori_final": "Kuliner" }, "geometry": { "type": "Point", "coordinates": [ 106.9749104, -6.2751561 ] } },
{ "type": "Feature", "properties": { "osm_id": "9085158809", "name": "Abuba Steak", "amenity": "restaurant", "shop": null, "railway": null, "jenis_fasilitas": "kuliner", "kategori_final": "Kuliner" }, "geometry": { "type": "Point", "coordinates": [ 106.9573409, -6.2483214 ] } },
{ "type": "Feature", "properties": { "osm_id": "8608848697", "name": "Nasi Uduk Bu Caplin", "amenity": "restaurant", "shop": null, "railway": null, "jenis_fasilitas": "kuliner", "kategori_final": "Kuliner" }, "geometry": { "type": "Point", "coordinates": [ 106.9974301, -6.2950323 ] } },
{ "type": "Feature", "properties": { "osm_id": "8611944455", "name": "Bakso", "amenity": "restaurant", "shop": null, "railway": null, "jenis_fasilitas": "kuliner", "kategori_final": "Kuliner" }, "geometry": { "type": "Point", "coordinates": [ 107.006229, -6.2811453 ] } },
{ "type": "Feature", "properties": { "osm_id": "8606307040", "name": "Soto Mie Bogor Pak Adeng Slamat", "amenity": "restaurant", "shop": null, "railway": null, "jenis_fasilitas": "kuliner", "kategori_final": "Kuliner" }, "geometry": { "type": "Point", "coordinates": [ 106.998369, -6.2809873 ] } },
{ "type": "Feature", "properties": { "osm_id": "8608848693", "name": "Soto", "amenity": "restaurant", "shop": null, "railway": null, "jenis_fasilitas": "kuliner", "kategori_final": "Kuliner" }, "geometry": { "type": "Point", "coordinates": [ 106.9973912, -6.2950969 ] } },
{ "type": "Feature", "properties": { "osm_id": "8624174712", "name": "Warmindo", "amenity": "restaurant", "shop": null, "railway": null, "jenis_fasilitas": "kuliner", "kategori_final": "Kuliner" }, "geometry": { "type": "Point", "coordinates": [ 106.9999536, -6.298076 ] } },
{ "type": "Feature", "properties": { "osm_id": "8624199520", "name": "Soto Mie Bogor A'Aden", "amenity": "restaurant", "shop": null, "railway": null, "jenis_fasilitas": "kuliner", "kategori_final": "Kuliner" }, "geometry": { "type": "Point", "coordinates": [ 107.0001125, -6.2982093 ] } },
{ "type": "Feature", "properties": { "osm_id": "8620157667", "name": null, "amenity": "restaurant", "shop": null, "railway": null, "jenis_fasilitas": "kuliner", "kategori_final": "Kuliner" }, "geometry": { "type": "Point", "coordinates": [ 107.0036885, -6.2698823 ] } },
{ "type": "Feature", "properties": { "osm_id": "8620634145", "name": "Warteg Barokah I", "amenity": "restaurant", "shop": null, "railway": null, "jenis_fasilitas": "kuliner", "kategori_final": "Kuliner" }, "geometry": { "type": "Point", "coordinates": [ 107.006168, -6.270619 ] } },
{ "type": "Feature", "properties": { "osm_id": "8603067745", "name": "RM Anisa Jaya", "amenity": "restaurant", "shop": null, "railway": null, "jenis_fasilitas": "kuliner", "kategori_final": "Kuliner" }, "geometry": { "type": "Point", "coordinates": [ 107.0106743, -6.2650762 ] } },
{ "type": "Feature", "properties": { "osm_id": "8603067746", "name": "Mie Agung", "amenity": "restaurant", "shop": null, "railway": null, "jenis_fasilitas": "kuliner", "kategori_final": "Kuliner" }, "geometry": { "type": "Point", "coordinates": [ 107.0106327, -6.2650949 ] } },
{ "type": "Feature", "properties": { "osm_id": "8601555101", "name": "Warteg Jawir", "amenity": "restaurant", "shop": null, "railway": null, "jenis_fasilitas": "kuliner", "kategori_final": "Kuliner" }, "geometry": { "type": "Point", "coordinates": [ 106.9963846, -6.2945391 ] } },
{ "type": "Feature", "properties": { "osm_id": "8601649528", "name": "Warteg Srijaya", "amenity": "restaurant", "shop": null, "railway": null, "jenis_fasilitas": "kuliner", "kategori_final": "Kuliner" }, "geometry": { "type": "Point", "coordinates": [ 106.9983197, -6.2950775 ] } },
{ "type": "Feature", "properties": { "osm_id": "8606307037", "name": "Sinar Minang", "amenity": "restaurant", "shop": null, "railway": null, "jenis_fasilitas": "kuliner", "kategori_final": "Kuliner" }, "geometry": { "type": "Point", "coordinates": [ 106.9985955, -6.2810361 ] } },
{ "type": "Feature", "properties": { "osm_id": "8606307039", "name": "Warsun", "amenity": "restaurant", "shop": null, "railway": null, "jenis_fasilitas": "kuliner", "kategori_final": "Kuliner" }, "geometry": { "type": "Point", "coordinates": [ 106.9983234, -6.2809746 ] } },
{ "type": "Feature", "properties": { "osm_id": "8605414201", "name": "Bu Tris", "amenity": "restaurant", "shop": null, "railway": null, "jenis_fasilitas": "kuliner", "kategori_final": "Kuliner" }, "geometry": { "type": "Point", "coordinates": [ 107.0174062, -6.2973668 ] } },
{ "type": "Feature", "properties": { "osm_id": "8606307025", "name": "Warung Nasi Kuningan", "amenity": "restaurant", "shop": null, "railway": null, "jenis_fasilitas": "kuliner", "kategori_final": "Kuliner" }, "geometry": { "type": "Point", "coordinates": [ 106.9988901, -6.2813283 ] } },
{ "type": "Feature", "properties": { "osm_id": "7377606215", "name": "Waroeng Makan Bebek Lalada", "amenity": "restaurant", "shop": null, "railway": null, "jenis_fasilitas": "kuliner", "kategori_final": "Kuliner" }, "geometry": { "type": "Point", "coordinates": [ 107.02639, -6.2424096 ] } },
{ "type": "Feature", "properties": { "osm_id": "6881996092", "name": "Nasi Uduk Pak Ranim", "amenity": "restaurant", "shop": null, "railway": null, "jenis_fasilitas": "kuliner", "kategori_final": "Kuliner" }, "geometry": { "type": "Point", "coordinates": [ 106.9374935, -6.352464 ] } },
{ "type": "Feature", "properties": { "osm_id": "7059959413", "name": "Soto Kudus Matahari", "amenity": "restaurant", "shop": "kiosk", "railway": null, "jenis_fasilitas": "kuliner", "kategori_final": "Kuliner" }, "geometry": { "type": "Point", "coordinates": [ 106.9665492, -6.256766 ] } },
{ "type": "Feature", "properties": { "osm_id": "8601514608", "name": "Nasi Goreng 14 Yuli", "amenity": "restaurant", "shop": null, "railway": null, "jenis_fasilitas": "kuliner", "kategori_final": "Kuliner" }, "geometry": { "type": "Point", "coordinates": [ 106.9967563, -6.2950017 ] } },
{ "type": "Feature", "properties": { "osm_id": "8601514609", "name": "Sate Madura Bang Edi", "amenity": "restaurant", "shop": null, "railway": null, "jenis_fasilitas": "kuliner", "kategori_final": "Kuliner" }, "geometry": { "type": "Point", "coordinates": [ 106.996704, -6.2950084 ] } },
{ "type": "Feature", "properties": { "osm_id": "8012186342", "name": "Kedai Mie Inget, Bekasi", "amenity": "restaurant", "shop": null, "railway": null, "jenis_fasilitas": "kuliner", "kategori_final": "Kuliner" }, "geometry": { "type": "Point", "coordinates": [ 106.9966041, -6.2412494 ] } },
{ "type": "Feature", "properties": { "osm_id": "6232851185", "name": "Bakso Balungan", "amenity": "restaurant", "shop": null, "railway": null, "jenis_fasilitas": "kuliner", "kategori_final": "Kuliner" }, "geometry": { "type": "Point", "coordinates": [ 106.9606363, -6.2935473 ] } },
{ "type": "Feature", "properties": { "osm_id": "6881669463", "name": "RM Padang", "amenity": "restaurant", "shop": null, "railway": null, "jenis_fasilitas": "kuliner", "kategori_final": "Kuliner" }, "geometry": { "type": "Point", "coordinates": [ 106.9385114, -6.352146 ] } },
{ "type": "Feature", "properties": { "osm_id": "6881760220", "name": "Toko Tahu Crispy", "amenity": "restaurant", "shop": null, "railway": null, "jenis_fasilitas": "kuliner", "kategori_final": "Kuliner" }, "geometry": { "type": "Point", "coordinates": [ 106.9367277, -6.3525319 ] } },
{ "type": "Feature", "properties": { "osm_id": "6369209686", "name": "Tsamara resto", "amenity": "restaurant", "shop": null, "railway": null, "jenis_fasilitas": "kuliner", "kategori_final": "Kuliner" }, "geometry": { "type": "Point", "coordinates": [ 106.9235159, -6.3413233 ] } },
{ "type": "Feature", "properties": { "osm_id": "6763983824", "name": "Ayam Penyet Bu Sungkono", "amenity": "restaurant", "shop": null, "railway": null, "jenis_fasilitas": "kuliner", "kategori_final": "Kuliner" }, "geometry": { "type": "Point", "coordinates": [ 106.9369918, -6.2847566 ] } },
{ "type": "Feature", "properties": { "osm_id": "13120870702", "name": "RM Padang Jaso Mandeh", "amenity": "restaurant", "shop": null, "railway": null, "jenis_fasilitas": "kuliner", "kategori_final": "Kuliner" }, "geometry": { "type": "Point", "coordinates": [ 107.0003204, -6.2967938 ] } },
{ "type": "Feature", "properties": { "osm_id": "13154693027", "name": "Sate Solo Pak Kirno 2", "amenity": "restaurant", "shop": null, "railway": null, "jenis_fasilitas": "kuliner", "kategori_final": "Kuliner" }, "geometry": { "type": "Point", "coordinates": [ 106.9998087, -6.2955891 ] } },
{ "type": "Feature", "properties": { "osm_id": "13105168241", "name": "RM Padang Duo Putra", "amenity": "restaurant", "shop": null, "railway": null, "jenis_fasilitas": "kuliner", "kategori_final": "Kuliner" }, "geometry": { "type": "Point", "coordinates": [ 107.0004283, -6.2983483 ] } },
{ "type": "Feature", "properties": { "osm_id": "13108383582", "name": "RM Padang Putri Minang", "amenity": "restaurant", "shop": null, "railway": null, "jenis_fasilitas": "kuliner", "kategori_final": "Kuliner" }, "geometry": { "type": "Point", "coordinates": [ 106.9906388, -6.2517328 ] } },
{ "type": "Feature", "properties": { "osm_id": "13284977014", "name": "Nasi Uduk Matama", "amenity": "restaurant", "shop": null, "railway": null, "jenis_fasilitas": "kuliner", "kategori_final": "Kuliner" }, "geometry": { "type": "Point", "coordinates": [ 106.9285496, -6.3661362 ] } },
{ "type": "Feature", "properties": { "osm_id": "13287771194", "name": "Es Pisang Ijo Paling Enak, Rawalumbu", "amenity": "restaurant", "shop": null, "railway": null, "jenis_fasilitas": "kuliner", "kategori_final": "Kuliner" }, "geometry": { "type": "Point", "coordinates": [ 106.9998303, -6.2858354 ] } },
{ "type": "Feature", "properties": { "osm_id": "13273391998", "name": "Family 10000", "amenity": "restaurant", "shop": null, "railway": null, "jenis_fasilitas": "kuliner", "kategori_final": "Kuliner" }, "geometry": { "type": "Point", "coordinates": [ 107.0010071, -6.2881368 ] } },
{ "type": "Feature", "properties": { "osm_id": "13284977010", "name": null, "amenity": "restaurant", "shop": null, "railway": null, "jenis_fasilitas": "kuliner", "kategori_final": "Kuliner" }, "geometry": { "type": "Point", "coordinates": [ 106.9279517, -6.3639678 ] } }
]
}
